{
  "norad_id": 61705,
  "name": "STARLINK-32515",
  "history": [
    {
      "epoch": "2026-03-28T16:07:27.833952Z",
      "apogee_km": 476.2402746253356,
      "perigee_km": 474.27979187000346,
      "latitude_deg": 3.8603054761786614e-05,
      "longitude_deg": -0.48058738641874416,
      "height_km": 476.12334217962115,
      "semi_major_axis_km": 6853.397033247669,
      "eccentricity": 0.00014303,
      "inclination_deg": 53.1614,
      "raan_deg": 67.4743,
      "arg_perigee_deg": 87.9722,
      "mean_anomaly_deg": 272.1443,
      "mean_motion_rev_day": 15.30184941
    },
    {
      "epoch": "2026-03-29T04:39:53.352864Z",
      "apogee_km": 476.22634103031487,
      "perigee_km": 474.26353244363327,
      "latitude_deg": 1.5740476493757755e-05,
      "longitude_deg": 168.47074992375062,
      "height_km": 476.1269321524743,
      "semi_major_axis_km": 6853.381936736974,
      "eccentricity": 0.0001432,
      "inclination_deg": 53.1615,
      "raan_deg": 65.047,
      "arg_perigee_deg": 89.0652,
      "mean_anomaly_deg": 271.0513,
      "mean_motion_rev_day": 15.30189997
    },
    {
      "epoch": "2026-03-30T02:36:38.187648Z",
      "apogee_km": 476.25860115063915,
      "perigee_km": 474.2272593393145,
      "latitude_deg": -2.7602267172263586e-05,
      "longitude_deg": -165.8650748956478,
      "height_km": 476.1949012560941,
      "semi_major_axis_km": 6853.379930244977,
      "eccentricity": 0.0001482,
      "inclination_deg": 53.1621,
      "raan_deg": 60.7993,
      "arg_perigee_deg": 93.0455,
      "mean_anomaly_deg": 267.0715,
      "mean_motion_rev_day": 15.30190669
    },
    {
      "epoch": "2026-03-30T05:44:44.591136Z",
      "apogee_km": 476.26952481963144,
      "perigee_km": 474.2217340899506,
      "latitude_deg": 1.574749548250019e-05,
      "longitude_deg": 146.37312187235233,
      "height_km": 476.1858619393664,
      "semi_major_axis_km": 6853.382629454791,
      "eccentricity": 0.0001494,
      "inclination_deg": 53.1618,
      "raan_deg": 60.1929,
      "arg_perigee_deg": 92.3666,
      "mean_anomaly_deg": 267.7506,
      "mean_motion_rev_day": 15.30189765
    },
    {
      "epoch": "2026-03-30T07:18:48.228768Z",
      "apogee_km": 476.25543022911734,
      "perigee_km": 474.26794460976544,
      "latitude_deg": 1.1582309415810207e-05,
      "longitude_deg": 122.49077983327567,
      "height_km": 476.1404796172293,
      "semi_major_axis_km": 6853.398687419441,
      "eccentricity": 0.000145,
      "inclination_deg": 53.1616,
      "raan_deg": 59.8901,
      "arg_perigee_deg": 88.893,
      "mean_anomaly_deg": 271.2237,
      "mean_motion_rev_day": 15.30184387
    },
    {
      "epoch": "2026-03-31T05:15:32.978016Z",
      "apogee_km": 476.20453868351615,
      "perigee_km": 474.2938146174665,
      "latitude_deg": -1.8650356278120734e-05,
      "longitude_deg": 148.15712273248212,
      "height_km": 476.0296396040947,
      "semi_major_axis_km": 6853.3861766504915,
      "eccentricity": 0.0001394,
      "inclination_deg": 53.1617,
      "raan_deg": 55.6442,
      "arg_perigee_deg": 82.9269,
      "mean_anomaly_deg": 277.189,
      "mean_motion_rev_day": 15.30188577
    },
    {
      "epoch": "2026-04-01T14:10:39.986976Z",
      "apogee_km": 476.0933062856211,
      "perigee_km": 474.4169665690515,
      "latitude_deg": 6.169545719113877e-05,
      "longitude_deg": 6.651660992921609,
      "height_km": 476.31674504640864,
      "semi_major_axis_km": 6853.3921364273365,
      "eccentricity": 0.0001223,
      "inclination_deg": 53.1613,
      "raan_deg": 49.2698,
      "arg_perigee_deg": 101.2358,
      "mean_anomaly_deg": 258.8781,
      "mean_motion_rev_day": 15.30186581
    },
    {
      "epoch": "2026-04-02T13:41:27.223008Z",
      "apogee_km": 476.1334108535566,
      "perigee_km": 474.3087727951888,
      "latitude_deg": 2.8953084828862663e-05,
      "longitude_deg": 8.44007113084724,
      "height_km": 476.2897736237184,
      "semi_major_axis_km": 6853.358091824372,
      "eccentricity": 0.00013312,
      "inclination_deg": 53.1615,
      "raan_deg": 44.7207,
      "arg_perigee_deg": 100.7715,
      "mean_anomaly_deg": 259.3436,
      "mean_motion_rev_day": 15.30197983
    },
    {
      "epoch": "2026-04-03T19:28:29.623872Z",
      "apogee_km": 476.3470124576652,
      "perigee_km": 474.2032651406489,
      "latitude_deg": -6.831070883571784e-05,
      "longitude_deg": -85.30689011588531,
      "height_km": 476.21355456140066,
      "semi_major_axis_km": 6853.412138799156,
      "eccentricity": 0.0001564,
      "inclination_deg": 53.1625,
      "raan_deg": 38.957,
      "arg_perigee_deg": 92.1642,
      "mean_anomaly_deg": 267.9537,
      "mean_motion_rev_day": 15.30179882
    },
    {
      "epoch": "2026-04-04T20:33:18.742752Z",
      "apogee_km": 475.8666684192094,
      "perigee_km": 474.53575013896716,
      "latitude_deg": -9.96271298566461e-06,
      "longitude_deg": -107.39492124122191,
      "height_km": 476.2230195549888,
      "semi_major_axis_km": 6853.338209279088,
      "eccentricity": 9.71e-05,
      "inclination_deg": 53.1617,
      "raan_deg": 34.1036,
      "arg_perigee_deg": 100.6625,
      "mean_anomaly_deg": 259.4485,
      "mean_motion_rev_day": 15.30204642
    },
    {
      "epoch": "2026-04-05T12:13:52.405248Z",
      "apogee_km": 476.1555471812044,
      "perigee_km": 474.35488691009687,
      "latitude_deg": 2.0487751854020007e-05,
      "longitude_deg": 13.787648837788682,
      "height_km": 476.28332795002603,
      "semi_major_axis_km": 6853.39221704565,
      "eccentricity": 0.00013137,
      "inclination_deg": 53.1624,
      "raan_deg": 31.0702,
      "arg_perigee_deg": 98.2911,
      "mean_anomaly_deg": 261.8239,
      "mean_motion_rev_day": 15.30186554
    },
    {
      "epoch": "2026-04-05T20:04:07.764672Z",
      "apogee_km": 475.6158735314284,
      "perigee_km": 474.95794483614645,
      "latitude_deg": 2.232266680344605e-05,
      "longitude_deg": -105.62042676680313,
      "height_km": 475.92803151714213,
      "semi_major_axis_km": 6853.423909183787,
      "eccentricity": 4.8e-05,
      "inclination_deg": 53.1602,
      "raan_deg": 29.548,
      "arg_perigee_deg": 38.2798,
      "mean_anomaly_deg": 321.8237,
      "mean_motion_rev_day": 15.3017594
    },
    {
      "epoch": "2026-04-06T05:28:27.041664Z",
      "apogee_km": 476.07718458849376,
      "perigee_km": 474.3961890905857,
      "latitude_deg": -2.4573844383163013e-05,
      "longitude_deg": 111.09345244207519,
      "height_km": 476.41528211825,
      "semi_major_axis_km": 6853.373686839539,
      "eccentricity": 0.00012264,
      "inclination_deg": 53.1615,
      "raan_deg": 27.7285,
      "arg_perigee_deg": 109.4743,
      "mean_anomaly_deg": 250.639,
      "mean_motion_rev_day": 15.3019276
    },
    {
      "epoch": "2026-04-07T01:51:08.276832Z",
      "apogee_km": 476.0290238712887,
      "perigee_km": 474.4779645346416,
      "latitude_deg": 8.251062104361187e-06,
      "longitude_deg": 160.644561868363,
      "height_km": 476.0842563354357,
      "semi_major_axis_km": 6853.390494202965,
      "eccentricity": 0.00011316,
      "inclination_deg": 53.1618,
      "raan_deg": 23.7883,
      "arg_perigee_deg": 84.9923,
      "mean_anomaly_deg": 275.1207,
      "mean_motion_rev_day": 15.30187131
    },
    {
      "epoch": "2026-04-07T19:05:43.163808Z",
      "apogee_km": 475.94811915408627,
      "perigee_km": 474.4129760234264,
      "latitude_deg": -2.186745154544333e-05,
      "longitude_deg": -102.04677091548253,
      "height_km": 475.9201079910201,
      "semi_major_axis_km": 6853.3175475887565,
      "eccentricity": 0.000112,
      "inclination_deg": 53.1622,
      "raan_deg": 20.4505,
      "arg_perigee_deg": 78.0449,
      "mean_anomaly_deg": 282.0677,
      "mean_motion_rev_day": 15.30211562
    },
    {
      "epoch": "2026-04-08T04:30:02.478816Z",
      "apogee_km": 475.804750996861,
      "perigee_km": 474.5453863711182,
      "latitude_deg": 5.1952424658479686e-05,
      "longitude_deg": 114.6661390725842,
      "height_km": 476.002436682897,
      "semi_major_axis_km": 6853.312068683989,
      "eccentricity": 9.188e-05,
      "inclination_deg": 53.1632,
      "raan_deg": 18.6301,
      "arg_perigee_deg": 83.4772,
      "mean_anomaly_deg": 276.6334,
      "mean_motion_rev_day": 15.30213397
    }
  ]
}